******** Week 132 almanac for PRN-18 ********
ID:                         18
Health:                     000
Eccentricity:               0.2035140991E-002
Time of Applicability(s):  147456.0000
Orbital Inclination(rad):   0.9698557579
Rate of Right Ascen(r/s):  -0.7691748964E-008
SQRT(A)  (m 1/2):           5153.600098
Right Ascen at Week(rad):   0.2273032958E+000
Argument of Perigee(rad):   2.999196093
Mean Anom(rad):            -0.4075864851E+000
Af0(s):                     0.3080368042E-003
Af1(s/s):                  -0.3637978807E-011
week:                        132

******** Week 132 almanac for PRN-19 ********
ID:                         19
Health:                     000
Eccentricity:               0.9004116058E-002
Time of Applicability(s):  147456.0000
Orbital Inclination(rad):   0.9796768302
Rate of Right Ascen(r/s):  -0.7668890869E-008
SQRT(A)  (m 1/2):           5153.616699
Right Ascen at Week(rad):  -0.7340262853E+000
Argument of Perigee(rad):   1.961437492
Mean Anom(rad):            -0.2333264174E+001
Af0(s):                     0.6771087646E-004
Af1(s/s):                   0.3637978807E-011
week:                        132

******** Week 132 almanac for PRN-20 ********
ID:                         20
Health:                     000
Eccentricity:               0.5530357361E-002
Time of Applicability(s):  147456.0000
Orbital Inclination(rad):   0.9397873376
Rate of Right Ascen(r/s):  -0.8446066098E-008
SQRT(A)  (m 1/2):           5153.605957
Right Ascen at Week(rad):   0.1103150899E+001
Argument of Perigee(rad):   3.004826057
Mean Anom(rad):             0.4845746439E+000
Af0(s):                     0.5187988281E-003
Af1(s/s):                   0.0000000000E+000
week:                        132

******** Week 132 almanac for PRN-21 ********
ID:                         21
Health:                     000
Eccentricity:               0.2413177490E-001
Time of Applicability(s):  147456.0000
Orbital Inclination(rad):   0.9588122946
Rate of Right Ascen(r/s):  -0.7760323249E-008
SQRT(A)  (m 1/2):           5153.583984
Right Ascen at Week(rad):   0.1301355747E+000
Argument of Perigee(rad):  -1.069780075
Mean Anom(rad):             0.1681242944E+001
Af0(s):                     0.1478195190E-003
Af1(s/s):                   0.0000000000E+000
week:                        132

******** Week 132 almanac for PRN-22 ********
ID:                         22
Health:                     000
Eccentricity:               0.6721019745E-002
Time of Applicability(s):  147456.0000
Orbital Inclination(rad):   0.9364677073
Rate of Right Ascen(r/s):  -0.8480353241E-008
SQRT(A)  (m 1/2):           5153.639160
Right Ascen at Week(rad):   0.1149219757E+001
Argument of Perigee(rad):  -0.885630101
Mean Anom(rad):             0.4336139745E+000
Af0(s):                    -0.4863739014E-003
Af1(s/s):                   0.1091393642E-010
week:                        132

******** Week 132 almanac for PRN-23 ********
ID:                         23
Health:                     000
Eccentricity:               0.1803874969E-002
Time of Applicability(s):  147456.0000
Orbital Inclination(rad):   0.9655234606
Rate of Right Ascen(r/s):  -0.8194627053E-008
SQRT(A)  (m 1/2):           5153.618652
Right Ascen at Week(rad):   0.1226723238E+001
Argument of Perigee(rad):   2.736133368
Mean Anom(rad):            -0.1155497618E+001
Af0(s):                     0.4386901855E-004
Af1(s/s):                  -0.3637978807E-011
week:                        132

******** Week 132 almanac for PRN-24 ********
ID:                         24
Health:                     000
Eccentricity:               0.1178264618E-001
Time of Applicability(s):  147456.0000
Orbital Inclination(rad):   0.9352033716
Rate of Right Ascen(r/s):  -0.8011762293E-008
SQRT(A)  (m 1/2):           5153.659180
Right Ascen at Week(rad):  -0.3008865865E+001
Argument of Perigee(rad):   0.767894828
Mean Anom(rad):            -0.3339187056E+000
Af0(s):                     0.2555847168E-003
Af1(s/s):                   0.7275957614E-011
week:                        132

******** Week 132 almanac for PRN-25 ********
ID:                         25
Health:                     000
Eccentricity:               0.9902477264E-002
Time of Applicability(s):  147456.0000
Orbital Inclination(rad):   0.9589501132
Rate of Right Ascen(r/s):  -0.8297488481E-008
SQRT(A)  (m 1/2):           5153.705566
Right Ascen at Week(rad):  -0.1891617398E+001
Argument of Perigee(rad):   0.963713318
Mean Anom(rad):            -0.2188050946E+001
Af0(s):                     0.2260208130E-003
Af1(s/s):                   0.7275957614E-011
week:                        132

******** Week 132 almanac for PRN-26 ********
ID:                         26
Health:                     000
Eccentricity:               0.6267070770E-002
Time of Applicability(s):  147456.0000
Orbital Inclination(rad):   0.9398592429
Rate of Right Ascen(r/s):  -0.8503211336E-008
SQRT(A)  (m 1/2):           5153.575195
Right Ascen at Week(rad):  -0.1936411060E+001
Argument of Perigee(rad):   0.298935255
Mean Anom(rad):            -0.2851896112E+001
Af0(s):                     0.1459121704E-003
Af1(s/s):                   0.3637978807E-011
week:                        132

******** Week 132 almanac for PRN-27 ********
ID:                         27
Health:                     000
Eccentricity:               0.9584426880E-002
Time of Applicability(s):  147456.0000
Orbital Inclination(rad):   0.9746194873
Rate of Right Ascen(r/s):  -0.7783181344E-008
SQRT(A)  (m 1/2):           5153.599609
Right Ascen at Week(rad):  -0.8406821419E+000
Argument of Perigee(rad):   0.630088226
Mean Anom(rad):             0.1525841252E+001
Af0(s):                    -0.2079010010E-003
Af1(s/s):                  -0.3637978807E-011
week:                        132

******** Week 132 almanac for PRN-29 ********
ID:                         29
Health:                     000
Eccentricity:               0.1883029938E-002
Time of Applicability(s):  147456.0000
Orbital Inclination(rad):   0.9829425315
Rate of Right Ascen(r/s):  -0.7646032774E-008
SQRT(A)  (m 1/2):           5153.523926
Right Ascen at Week(rad):  -0.7662679699E+000
Argument of Perigee(rad):   2.377641384
Mean Anom(rad):             0.1557828646E+001
Af0(s):                    -0.4281997681E-003
Af1(s/s):                  -0.3637978807E-011
week:                        132

******** Week 132 almanac for PRN-30 ********
ID:                         30
Health:                     000
Eccentricity:               0.5348205566E-002
Time of Applicability(s):  147456.0000
Orbital Inclination(rad):   0.9369171157
Rate of Right Ascen(r/s):  -0.8023191341E-008
SQRT(A)  (m 1/2):           5153.582520
Right Ascen at Week(rad):  -0.2913237368E+001
Argument of Perigee(rad):  -2.738580397
Mean Anom(rad):            -0.1392201415E+001
Af0(s):                    -0.4835128784E-003
Af1(s/s):                  -0.3637978807E-011
week:                        132

******** Week 132 almanac for PRN-31 ********
ID:                         31
Health:                     000
Eccentricity:               0.1027774811E-001
Time of Applicability(s):  147456.0000
Orbital Inclination(rad):   0.9560019939
Rate of Right Ascen(r/s):  -0.7828897534E-008
SQRT(A)  (m 1/2):           5153.584961
Right Ascen at Week(rad):  -0.2910580615E+001
Argument of Perigee(rad):   0.313634656
Mean Anom(rad):            -0.1761781803E+001
Af0(s):                    -0.1459121704E-003
Af1(s/s):                  -0.3637978807E-011
week:                        132

******** Week 132 almanac for PRN-32 ********
ID:                         32
Health:                     000
Eccentricity:               0.5138397217E-002
Time of Applicability(s):  147456.0000
Orbital Inclination(rad):   0.9576378406
Rate of Right Ascen(r/s):  -0.7920329914E-008
SQRT(A)  (m 1/2):           5153.681152
Right Ascen at Week(rad):   0.2293929701E+001
Argument of Perigee(rad):  -2.385521761
Mean Anom(rad):             0.2277090741E+001
Af0(s):                    -0.1144409180E-004
Af1(s/s):                  -0.3637978807E-011
week:                        132